NORAD_CAT_ID,OBJECT_NAME,OBJECT_TYPE,EPOCH,MEAN_MOTION,ECCENTRICITY,INCLINATION,RA_OF_ASC_NODE,ARG_OF_PERICENTER,MEAN_ANOMALY,BSTAR,MEAN_MOTION_DOT,MEAN_MOTION_DDOT,TLE_LINE0,TLE_LINE1,TLE_LINE2,SEMIMAJOR_AXIS,PERIOD,APOGEE,PERIGEE,DECAYED
52490.0,STARLINK-3914,PAYLOAD,2022-06-27 06:00:00,15.73191599,0.0001641,53.2163,9.7139,42.14,30.5983,-0.00066954,-0.00093518,0.0,0 STARLINK-3914,1 52490U 22049AR  22178.25001157 -.00093518  00000-0 -66954-3 0  9999,2 52490  53.2163   9.7139 0001641  42.1400  30.5983 15.73191599  8336,6727.919,91.534,350.88800000000015,348.68,0.0
52490.0,STARLINK-3914,PAYLOAD,2022-06-27 14:00:01,15.73154808,0.0001681,53.2166,8.064,50.0521,111.5757,0.00033754,0.00046925,0.0,0 STARLINK-3914,1 52490U 22049AR  22178.58334491  .00046925  00000-0  33754-3 0  9995,2 52490  53.2166   8.0640 0001681  50.0521 111.5757 15.73154808  8380,6728.024,91.536,351.02,348.7580000000001,0.0
52490.0,STARLINK-3914,PAYLOAD,2022-06-27 22:00:00,15.73153731,0.0001897,53.2167,6.4166,42.112,208.3983,0.0005672,0.00079584,0.0,0 STARLINK-3914,1 52490U 22049AR  22178.91667824  .00079584  00000-0  56720-3 0  9996,2 52490  53.2167   6.4166 0001897  42.1120 208.3983 15.73153731  1307,6728.026999999999,91.536,351.168,348.616,0.0
52490.0,STARLINK-3914,PAYLOAD,2022-06-28 06:00:00,15.73204561,0.0001708,53.2168,4.7653,43.3938,296.0106,8.0119e-05,0.0001064,0.0,0 STARLINK-3914,1 52490U 22049AR  22179.25001157  .00010640  00000-0  80119-4 0  9993,2 52490  53.2168   4.7653 0001708  43.3938 296.0106 15.73204561  8497,6727.882,91.533,350.896,348.598,0.0
52490.0,STARLINK-3914,PAYLOAD,2022-06-28 14:00:01,15.7322691,0.0001634,53.2169,3.1156,42.5576,25.7746,-0.00055571,-0.00077984,0.0,0 STARLINK-3914,1 52490U 22049AR  22179.58334491 -.00077984  00000-0 -55571-3 0  9998,2 52490  53.2169   3.1156 0001634  42.5576  25.7746 15.73226910  1308,6727.818,91.532,350.783,348.584,0.0
52490.0,STARLINK-3914,PAYLOAD,2022-06-28 22:00:00,15.731509400000002,0.0001794,53.2165,1.4679,33.7212,123.5443,0.00056604,0.00079408,0.0,0 STARLINK-3914,1 52490U 22049AR  22179.91667824  .00079408  00000-0  56604-3 0  9993,2 52490  53.2165   1.4679 0001794  33.7212 123.5443 15.73150940  1301,6728.035,91.536,351.107,348.6930000000001,0.0
52490.0,STARLINK-3914,PAYLOAD,2022-06-29 14:00:01,15.73225742,0.0001564999999999,53.2166,358.1671,39.363,295.7102,3.8791e-05,4.833e-05,0.0,0 STARLINK-3914,1 52490U 22049AR  22180.58334491  .00004833  00000-0  38791-4 0  9997,2 52490  53.2166 358.1671 0001565  39.3630 295.7102 15.73225742  8706,6727.821999999999,91.532,350.74,348.634,0.0
52490.0,STARLINK-3914,PAYLOAD,2022-06-29 22:00:00,15.73231007,0.0001829,53.2166,356.5194,34.6054,29.4434,0.00016641,0.00022829,0.0,0 STARLINK-3914,1 52490U 22049AR  22180.91667824  .00022829  00000-0  16641-3 0  9997,2 52490  53.2166 356.5194 0001829  34.6054  29.4434 15.73231007  1309,6727.807,91.531,350.902,348.441,0.0
52490.0,STARLINK-3914,PAYLOAD,2022-06-30 14:00:01,15.73203864,0.0001701,53.2178,353.2089,38.6358,203.2827,7.130299999999999e-06,3.8e-06,0.0,0 STARLINK-3914,1 52490U 22049AR  22181.58334491  .00000380  00000-0  71303-5 0  9998,2 52490  53.2178 353.2089 0001701  38.6358 203.2827 15.73203864  1307,6727.884,91.533,350.894,348.605,0.0
52490.0,STARLINK-3914,PAYLOAD,2022-06-30 16:00:00,15.73204969,0.000176,53.2176,352.797,37.6651,316.4862,-7.975599999999999e-06,-1.74e-05,0.0,0 STARLINK-3914,1 52490U 22049AR  22181.66667824 -.00001740  00000-0 -79756-5 0  9999,2 52490  53.2176 352.7970 0001760  37.6651 316.4862 15.73204969  8870,6727.880999999999,91.533,350.93,348.56199999999984,0.0
52490.0,STARLINK-3914,PAYLOAD,2022-06-30 22:00:00,15.73167042,0.0001933,53.2166,351.5705,33.6848,297.2843,0.00047308,0.00066207,0.0,0 STARLINK-3914,1 52490U 22049AR  22181.91667824  .00066207  00000-0  47308-3 0  9990,2 52490  53.2166 351.5705 0001933  33.6848 297.2843 15.73167042  1304,6727.989000000001,91.535,351.155,348.55400000000014,0.0
52490.0,STARLINK-3914,PAYLOAD,2022-07-01 14:00:01,15.73219208,0.0001832,53.2168,348.2699,41.4483,107.3803,-0.00041575,-0.00058615,0.0,0 STARLINK-3914,1 52490U 22049AR  22182.58334491 -.00058615  00000-0 -41575-3 0  9991,2 52490  53.2168 348.2699 0001832  41.4483 107.3803 15.73219208  1300,6727.84,91.532,350.93800000000016,348.473,0.0
52490.0,STARLINK-3914,PAYLOAD,2022-07-01 22:00:00,15.73158974,0.0002047,53.2168,346.6221,36.9792,200.7753,0.00057286,0.00080411,0.0,0 STARLINK-3914,1 52490U 22049AR  22182.91667824  .00080411  00000-0  57286-3 0  9990,2 52490  53.2168 346.6221 0002047  36.9792 200.7753 15.73158974  1308,6728.012,91.536,351.254,348.5,0.0
52490.0,STARLINK-3914,PAYLOAD,2022-07-02 14:00:01,15.73240531,0.000189,53.2173,343.3217,37.2399,18.3626,-0.00070721,-0.00098893,0.0,0 STARLINK-3914,1 52490U 22049AR  22183.58334491 -.00098893  00000-0 -70721-3 0  9999,2 52490  53.2173 343.3217 0001890  37.2399  18.3626 15.73240531  9171,6727.78,91.531,350.916,348.37300000000016,0.0
52490.0,STARLINK-3914,PAYLOAD,2022-07-02 22:00:00,15.73194169,0.0002033,53.2167,341.6735,29.54,115.0497,0.00069456,0.0009798,0.0,0 STARLINK-3914,1 52490U 22049AR  22183.91667824  .00097980  00000-0  69456-3 0  9992,2 52490  53.2167 341.6735 0002033  29.5400 115.0497 15.73194169  1300,6727.9119999999975,91.534,351.145,348.409,0.0
52490.0,STARLINK-3914,PAYLOAD,2022-07-03 00:00:00,15.73231985,0.000201,53.2165,341.2605,29.5333,227.2845,0.00030054,0.00041828,0.0,0 STARLINK-3914,1 52490U 22049AR  22184.00001157  .00041828  00000-0  30054-3 0  9996,2 52490  53.2165 341.2605 0002010  29.5333 227.2845 15.73231985  9231,6727.804,91.531,351.021,348.31699999999995,0.0
52490.0,STARLINK-3914,PAYLOAD,2022-07-03 14:00:01,15.73287582,0.0001861,53.217,338.3732,33.4653,289.0611,-0.00097482,-0.00135764,0.0,0 STARLINK-3914,1 52490U 22049AR  22184.58334491 -.00135764  00000-0 -97482-3 0  9992,2 52490  53.2170 338.3732 0001861  33.4653 289.0611 15.73287582  9328,6727.645,91.528,350.76199999999994,348.2580000000001,0.0
52490.0,STARLINK-3914,PAYLOAD,2022-07-03 22:00:00,15.73149437,0.0001941,53.2168,336.725,23.1169,28.3746,-0.00031258,-0.00044168,0.0,0 STARLINK-3914,1 52490U 22049AR  22184.91667824 -.00044168  00000-0 -31258-3 0  9994,2 52490  53.2168 336.7250 0001941  23.1169  28.3746 15.73149437  1308,6728.0390000000025,91.536,351.21,348.598,0.0
52490.0,STARLINK-3914,PAYLOAD,2022-07-04 14:00:01,15.73142719,0.0001898,53.2174,333.4254,23.8432,205.3109,-8.681399999999998e-07,-7.42e-06,0.0,0 STARLINK-3914,1 52490U 22049AR  22185.58334491 -.00000742  00000-0 -86814-6 0  9990,2 52490  53.2174 333.4254 0001898  23.8432 205.3109 15.73142719  9487,6728.058000000001,91.537,351.2,348.647,0.0
52490.0,STARLINK-3914,PAYLOAD,2022-07-04 22:00:00,15.73075861,0.0002459,53.2167,331.7774,20.2721,297.5809,0.00045945,0.00064016,0.0,0 STARLINK-3914,1 52490U 22049AR  22185.91667824  .00064016  00000-0  45945-3 0  9995,2 52490  53.2167 331.7774 0002459  20.2721 297.5809 15.73075861  9532,6728.249,91.54,351.769,348.46,0.0
52490.0,STARLINK-3914,PAYLOAD,2022-07-05 14:00:01,15.73171006,0.0002511,53.2168,328.4782,32.0591,103.4157,0.0013199,0.00188612,0.0,0 STARLINK-3914,1 52490U 22049AR  22186.58334491  .00188612  00000-0  13199-2 0  9994,2 52490  53.2168 328.4782 0002511  32.0591 103.4157 15.73171006  1306,6727.978,91.535,351.532,348.153,0.0
52490.0,STARLINK-3914,PAYLOAD,2022-07-05 22:00:00,15.73324497,0.0002677,53.2165,326.8294,30.6249,193.8271,-4.4718e-05,-6.929e-05,0.0,0 STARLINK-3914,1 52490U 22049AR  22186.91667824 -.00006929  00000-0 -44718-4 0  9995,2 52490  53.2165 326.8294 0002677  30.6249 193.8271 15.73324497  1304,6727.54,91.526,351.206,347.60400000000016,0.0
52490.0,STARLINK-3914,PAYLOAD,2022-07-06 06:00:00,15.73259221,0.0002458,53.217,325.1775,30.3987,283.138,0.00035973,0.00050301,0.0,0 STARLINK-3914,1 52490U 22049AR  22187.25001157  .00050301  00000-0  35973-3 0  9997,2 52490  53.2170 325.1775 0002458  30.3987 283.1380 15.73259221  9741,6727.726,91.53,351.245,347.93800000000016,0.0
52490.0,STARLINK-3914,PAYLOAD,2022-07-06 14:00:01,15.73305829,0.0002553,53.2171,323.5292,26.1575,16.3974,-0.00071904,-0.00100808,0.0,0 STARLINK-3914,1 52490U 22049AR  22187.58334491 -.00100808  00000-0 -71904-3 0  9997,2 52490  53.2171 323.5292 0002553  26.1575  16.3974 15.73305829  1305,6727.593000000003,91.527,351.176,347.741,0.0
52490.0,STARLINK-3914,PAYLOAD,2022-07-06 16:00:00,15.73259175,0.0002655,53.217,323.1172,24.9421,129.8816,-0.00018746,-0.00026919,0.0,0 STARLINK-3914,1 52490U 22049AR  22187.66667824 -.00026919  00000-0 -18746-3 0  9990,2 52490  53.2170 323.1172 0002655  24.9421 129.8816 15.73259175  9817,6727.726,91.53,351.37800000000016,347.805,0.0
52490.0,STARLINK-3914,PAYLOAD,2022-07-06 22:00:00,15.73245623,0.0002661,53.2166,321.8801,22.3013,109.2617,0.00023719,0.00032866,0.0,0 STARLINK-3914,1 52490U 22049AR  22187.91667824  .00032866  00000-0  23719-3 0  9990,2 52490  53.2166 321.8801 0002661  22.3013 109.2617 15.73245623  1302,6727.765,91.531,351.42,347.84,0.0
52490.0,STARLINK-3914,PAYLOAD,2022-07-07 06:00:02,15.73273902,0.0002341,53.2164,320.2284,21.8829,198.7442,-0.00034683,-0.00049174,0.0,0 STARLINK-3914,1 52490U 22049AR  22188.25002315 -.00049174  00000-0 -34683-3 0  9990,2 52490  53.2164 320.2284 0002341  21.8829 198.7442 15.73273902  9906,6727.684,91.529,351.124,347.975,0.0
52490.0,STARLINK-3914,PAYLOAD,2022-07-07 12:41:22,15.73274998,0.0002005,53.2171,318.849,8.3067,351.7986,4.6181e-06,2.8e-07,0.0,0 STARLINK-3914,1 52490U 22049AR  22188.52873453  .00000028  00000-0  46181-5 0  9990,2 52490  53.2171 318.8490 0002005   8.3067 351.7986 15.73274998  9952,6727.681,91.529,350.895,348.19699999999995,0.0
52490.0,STARLINK-3914,PAYLOAD,2022-07-07 22:00:00,15.73250545,0.0002667,53.2163,316.927,14.8911,23.6356,-0.00072617,-0.00101555,0.0,0 STARLINK-3914,1 52490U 22049AR  22188.91667824 -.00101555  00000-0 -72617-3 0  9996,2 52490  53.2163 316.9270 0002667  14.8911  23.6356 15.73250545 10019,6727.751,91.53,351.41,347.82199999999995,0.0
